NORAD_CAT_ID,OBJECT_NAME,OBJECT_TYPE,EPOCH,MEAN_MOTION,ECCENTRICITY,INCLINATION,RA_OF_ASC_NODE,ARG_OF_PERICENTER,MEAN_ANOMALY,BSTAR,MEAN_MOTION_DOT,MEAN_MOTION_DDOT,TLE_LINE0,TLE_LINE1,TLE_LINE2,SEMIMAJOR_AXIS,PERIOD,APOGEE,PERIGEE,DECAYED
55938.0,STARLINK-5909,PAYLOAD,2024-03-09 10:17:13,14.98303383,0.000292,69.9989,325.7266,271.0358,89.0467,0.00042331,4.958e-05,0.0,0 STARLINK-5909,1 55938U 23037AA  24069.42862926  .00004958  00000-0  42331-3 0  9997,2 55938  69.9989 325.7266 0002920 271.0358  89.0467 14.98303383 54591,6950.275,96.109,574.17,570.111,0.0
55938.0,STARLINK-5909,PAYLOAD,2024-03-09 16:41:44,14.98330655,0.0003093,69.9992,325.0528,269.2779,90.8026,8.0474e-05,8.67e-06,0.0,0 STARLINK-5909,1 55938U 23037AA  24069.69565893  .00000867  00000-0  80474-4 0  9995,2 55938  69.9992 325.0528 0003093 269.2779  90.8026 14.98330655 54972,6950.191,96.107,574.206,569.906,0.0
55938.0,STARLINK-5909,PAYLOAD,2024-03-10 02:18:32,14.98341474,0.0003073,69.9987,324.0428,266.9987,93.082,9.3469e-05,1.023e-05,0.0,0 STARLINK-5909,1 55938U 23037AA  24070.09621040  .00001023  00000-0  93469-4 0  9991,2 55938  69.9987 324.0428 0003073 266.9987  93.0820 14.98341474 55033,6950.157,96.106,574.158,569.887,0.0
55938.0,STARLINK-5909,PAYLOAD,2024-03-10 10:19:13,14.98334898,0.000308,70.0,323.2005,268.3675,91.7131,3.3603e-05,3.08e-06,0.0,0 STARLINK-5909,1 55938U 23037AA  24070.43001513  .00000308  00000-0  33603-4 0  9995,2 55938  70.0000 323.2005 0003080 268.3675  91.7131 14.98334898 55089,6950.178,96.107,574.183,569.902,0.0
55938.0,STARLINK-5909,PAYLOAD,2024-03-10 21:32:11,14.98283695,0.0002712,70.0004,322.0225,267.4634,92.6214,0.00071613,8.452e-05,0.0,0 STARLINK-5909,1 55938U 23037AA  24070.89735551  .00008452  00000-0  71613-3 0  9991,2 55938  70.0004 322.0225 0002712 267.4634  92.6214 14.98283695 55158,6950.336,96.11,574.086,570.316,0.0
55938.0,STARLINK-5909,PAYLOAD,2024-03-10 23:08:18,14.98317839,0.0002693,70.0,321.8516,265.1948,94.8904,0.00013946,1.571e-05,0.0,0 STARLINK-5909,1 55938U 23037AA  24070.96410250  .00001571  00000-0  13946-3 0  9995,2 55938  70.0000 321.8516 0002693 265.1948  94.8904 14.98317839 54826,6950.23,96.108,573.967,570.224,0.0
55938.0,STARLINK-5909,PAYLOAD,2024-03-11 02:20:34,14.98323466,0.0002814,70.0001,321.5153,265.7302,94.3536,5.1025e-05,5.16e-06,0.0,0 STARLINK-5909,1 55938U 23037AA  24071.09762249  .00000516  00000-0  51025-4 0  9997,2 55938  70.0001 321.5153 0002814 265.7302  94.3536 14.98323466 55185,6950.213,96.107,574.034,570.122,0.0
55938.0,STARLINK-5909,PAYLOAD,2024-03-11 10:21:15,14.98315452,0.0002597,70.0002,320.6754,268.6151,91.471,0.00025217,2.916e-05,0.0,0 STARLINK-5909,1 55938U 23037AA  24071.43142441  .00002916  00000-0  25217-3 0  9990,2 55938  70.0002 320.6754 0002597 268.6151  91.4710 14.98315452 54890,6950.238,96.108,573.908,570.298,0.0
55938.0,STARLINK-5909,PAYLOAD,2024-03-12 02:22:34,14.98339761,0.0002866,69.9998,318.9917,269.9219,90.1611,-1.6552e-05,-2.91e-06,0.0,0 STARLINK-5909,1 55938U 23037AA  24072.09901193 -.00000291  00000-0 -16552-4 0  9999,2 55938  69.9998 318.9917 0002866 269.9219  90.1611 14.98339761 55335,6950.163,96.106,574.02,570.036,0.0
55938.0,STARLINK-5909,PAYLOAD,2024-03-12 23:12:19,14.98327923,0.0002983,69.9994,316.804,272.2119,87.8698,1.5857e-05,9.6e-07,0.0,0 STARLINK-5909,1 55938U 23037AA  24072.96689654  .00000096  00000-0  15857-4 0  9998,2 55938  69.9994 316.8040 0002983 272.2119  87.8698 14.98327923 55123,6950.199,96.107,574.138,569.991,0.0
55938.0,STARLINK-5909,PAYLOAD,2024-03-13 02:24:35,14.98329622,0.0002948,69.9995,316.4672,272.0946,87.9876,3.4367e-05,3.17e-06,0.0,0 STARLINK-5909,1 55938U 23037AA  24073.10041504  .00000317  00000-0  34367-4 0  9994,2 55938  69.9995 316.4672 0002948 272.0946  87.9876 14.98329622 55484,6950.194,96.107,574.108,570.01,0.0
55938.0,STARLINK-5909,PAYLOAD,2024-03-13 08:49:08,14.98329458,0.0002961,69.9995,315.7938,271.9236,88.1584,-2.9215e-06,-1.28e-06,0.0,0 STARLINK-5909,1 55938U 23037AA  24073.36745582 -.00000128  00000-0 -29215-5 0  9998,2 55938  69.9995 315.7938 0002961 271.9236  88.1584 14.98329458 55189,6950.195,96.107,574.118,570.002,0.0
55938.0,STARLINK-5909,PAYLOAD,2024-03-13 21:38:12,14.98332421,0.0002846,69.9996,314.4474,272.4657,87.6176,-4.9878e-05,-6.88e-06,0.0,0 STARLINK-5909,1 55938U 23037AA  24073.90153516 -.00000688  00000-0 -49878-4 0  9995,2 55938  69.9996 314.4474 0002846 272.4657  87.6176 14.98332421 55260,6950.185,96.107,574.028,570.072,0.0
55938.0,STARLINK-5909,PAYLOAD,2024-03-14 02:26:36,14.98333334,0.0002845,69.9996,313.9421,274.1289,85.9545,6.3126e-06,-1.8e-07,0.0,0 STARLINK-5909,1 55938U 23037AA  24074.10181240 -.00000018  00000-0  63126-5 0  9992,2 55938  69.9996 313.9421 0002845 274.1289  85.9545 14.98333334 55631,6950.183,96.107,574.025,570.07,0.0
55938.0,STARLINK-5909,PAYLOAD,2024-03-14 21:40:13,14.9836007,0.000283,70.0002,311.921,274.1594,85.9242,-0.00051202,-6.202e-05,0.0,0 STARLINK-5909,1 55938U 23037AA  24074.90293463 -.00006202  00000-0 -51202-3 0  9993,2 55938  70.0002 311.9210 0002830 274.1594  85.9242 14.98360070 55416,6950.1,96.105,573.932,569.998,0.0
55938.0,STARLINK-5909,PAYLOAD,2024-03-15 00:52:29,14.98326989,0.0002849,69.9993,311.5856,273.0441,87.0392,-1.1687e-05,-2.32e-06,0.0,0 STARLINK-5909,1 55938U 23037AA  24075.03645646 -.00000232  00000-0 -11687-4 0  9993,2 55938  69.9993 311.5856 0002849 273.0441  87.0392 14.98326989 55772,6950.202,96.107,574.047,570.087,0.0
55938.0,STARLINK-5909,PAYLOAD,2024-03-15 15:17:42,14.98330297,0.0002693,69.9996,310.07,272.4914,87.5936,8.5831e-06,9e-08,0.0,0 STARLINK-5909,1 55938U 23037AA  24075.63729447  .00000009  00000-0  85831-5 0  9994,2 55938  69.9996 310.0700 0002693 272.4914  87.5936 14.98330297 55521,6950.192,96.107,573.929,570.185,0.0
55938.0,STARLINK-5909,PAYLOAD,2024-03-16 00:54:30,14.98329579,0.0002752,69.9994,309.0599,272.0478,88.0366,-1.1777e-05,-2.33e-06,0.0,0 STARLINK-5909,1 55938U 23037AA  24076.03785535 -.00000233  00000-0 -11777-4 0  9997,2 55938  69.9994 309.0599 0002752 272.0478  88.0366 14.98329579 55928,6950.194,96.107,573.972,570.146,0.0
55938.0,STARLINK-5909,PAYLOAD,2024-03-16 21:44:15,14.98326634,0.000294,69.9986,306.8721,266.9769,93.1054,-8.0514e-06,-1.89e-06,0.0,0 STARLINK-5909,1 55938U 23037AA  24076.90573692 -.00000189  00000-0 -80514-5 0  9998,2 55938  69.9986 306.8721 0002940 266.9769  93.1054 14.98326634 55712,6950.203,96.107,574.112,570.025,0.0
55938.0,STARLINK-5909,PAYLOAD,2024-03-17 00:56:31,14.98327604,0.000294,69.9986,306.5358,268.34,91.7422,3.8672e-06,-4.7e-07,0.0,0 STARLINK-5909,1 55938U 23037AA  24077.03925625 -.00000047  00000-0  38672-5 0  9990,2 55938  69.9986 306.5358 0002940 268.3400  91.7422 14.98327604 56074,6950.2,96.107,574.109,570.022,0.0
55938.0,STARLINK-5909,PAYLOAD,2024-03-17 21:46:16,14.98332269,0.000299,69.9984,304.3474,268.3437,91.7379,2.1286e-05,1.61e-06,0.0,0 STARLINK-5909,1 55938U 23037AA  24077.90713246  .00000161  00000-0  21286-4 0  9998,2 55938  69.9984 304.3474 0002990 268.3437  91.7379 14.98332269 55862,6950.186,96.107,574.129,569.973,0.0
55938.0,STARLINK-5909,PAYLOAD,2024-03-18 00:58:32,14.98334127,0.0002988,69.9985,304.0104,270.5253,89.5564,4.0725e-05,3.93e-06,0.0,0 STARLINK-5909,1 55938U 23037AA  24078.04065060  .00000393  00000-0  40725-4 0  9994,2 55938  69.9985 304.0104 0002988 270.5253  89.5564 14.98334127 56225,6950.18,96.107,574.122,569.968,0.0
55938.0,STARLINK-5909,PAYLOAD,2024-03-18 20:12:09,14.98327772,0.0002986,69.9983,301.9902,271.2117,88.87,4.1577e-06,-4.3e-07,0.0,0 STARLINK-5909,1 55938U 23037AA  24078.84177511 -.00000043  00000-0  41577-5 0  9997,2 55938  69.9983 301.9902 0002986 271.2117  88.8700 14.98327772 56345,6950.2,96.107,574.14,569.989,0.0
55938.0,STARLINK-5909,PAYLOAD,2024-03-18 21:48:17,14.9832768,0.0002985,69.9983,301.8219,271.2616,88.8201,3.1358e-06,-5.6e-07,0.0,0 STARLINK-5909,1 55938U 23037AA  24078.90853528 -.00000056  00000-0  31358-5 0  9993,2 55938  69.9983 301.8219 0002985 271.2616  88.8201 14.98327680 56016,6950.2,96.107,574.14,569.99,0.0
55938.0,STARLINK-5909,PAYLOAD,2024-03-19 01:00:33,14.98328536,0.0002964,69.9984,301.4853,271.1808,88.9011,1.3578e-05,6.9e-07,0.0,0 STARLINK-5909,1 55938U 23037AA  24079.04205459  .00000069  00000-0  13578-4 0  9999,2 55938  69.9984 301.4853 0002964 271.1808  88.9011 14.98328536 56039,6950.197,96.107,574.122,570.002,0.0
55938.0,STARLINK-5909,PAYLOAD,2024-03-19 21:50:17,14.9833664,0.0002853,69.9984,299.2963,274.1252,85.9581,3.7876e-05,3.59e-06,0.0,0 STARLINK-5909,1 55938U 23037AA  24079.90992719  .00000359  00000-0  37876-4 0  9995,2 55938  69.9984 299.2963 0002853 274.1252  85.9581 14.98336640 56504,6950.172,96.107,574.02,570.054,0.0
55938.0,STARLINK-5909,PAYLOAD,2024-03-20 13:51:38,14.98327431,0.0002126,69.9995,297.6179,269.0205,91.071,4.0041e-05,3.85e-06,0.0,0 STARLINK-5909,1 55938U 23037AA  24080.57753263  .00000385  00000-0  40041-4 0  9996,2 55938  69.9995 297.6179 0002126 269.0205  91.0710 14.98327431 56264,6950.201,96.107,573.543,570.588,0.0
55938.0,STARLINK-5909,PAYLOAD,2024-03-20 20:16:11,14.98323417,0.0003037,69.9981,296.9403,266.5013,93.5799,-8.871e-05,-1.151e-05,0.0,0 STARLINK-5909,1 55938U 23037AA  24080.84457815 -.00001151  00000-0 -88710-4 0  9999,2 55938  69.9981 296.9403 0003037 266.5013  93.5799 14.98323417 56648,6950.213,96.107,574.189,569.967,0.0
55938.0,STARLINK-5909,PAYLOAD,2024-03-20 21:52:19,14.98322921,0.0003041,69.9982,296.7722,267.6478,92.4333,-9.0893e-05,-1.177e-05,0.0,0 STARLINK-5909,1 55938U 23037AA  24080.91133893 -.00001177  00000-0 -90893-4 0  9997,2 55938  69.9982 296.7722 0003041 267.6478  92.4333 14.98322921 56318,6950.215,96.107,574.193,569.966,0.0
55938.0,STARLINK-5909,PAYLOAD,2024-03-21 12:17:31,14.98328314,0.0003209,69.9971,295.2557,263.5737,96.5057,-4.1491e-05,-5.88e-06,0.0,0 STARLINK-5909,1 55938U 23037AA  24081.51217448 -.00000588  00000-0 -41491-4 0  9998,2 55938  69.9971 295.2557 0003209 263.5737  96.5057 14.98328314 56742,6950.198,96.107,574.293,569.833,0.0
